[{"OBJECT_NAME":"STARLINK-36969","OBJECT_ID":"2026-050A","EPOCH":"2026-04-12T20:00:01.999008","MEAN_MOTION":15.59533725,"ECCENTRICITY":0.0001346,"INCLINATION":53.1591,"RA_OF_ASC_NODE":111.1137,"ARG_OF_PERICENTER":72.974,"MEAN_ANOMALY":125.9152,"EPHEMERIS_TYPE":0,"CLASSIFICATION_TYPE":"U","NORAD_CAT_ID":68167,"ELEMENT_SET_NO":999,"REV_AT_EPOCH":593,"BSTAR":-0.026842,"MEAN_MOTION_DOT":-0.01916808,"MEAN_MOTION_DDOT":0},{"OBJECT_NAME":"STARLINK-36984","OBJECT_ID":"2026-050B","EPOCH":"2026-04-12T20:00:01.999008","MEAN_MOTION":15.4929179,"ECCENTRICITY":0.0001081,"INCLINATION":53.1598,"RA_OF_ASC_NODE":111.6592,"ARG_OF_PERICENTER":93.8265,"MEAN_ANOMALY":195.5506,"EPHEMERIS_TYPE":0,"CLASSIFICATION_TYPE":"U","NORAD_CAT_ID":68168,"ELEMENT_SET_NO":999,"REV_AT_EPOCH":593,"BSTAR":0.0012249,"MEAN_MOTION_DOT":0.00068229,"MEAN_MOTION_DDOT":0},{"OBJECT_NAME":"STARLINK-37077","OBJECT_ID":"2026-050C","EPOCH":"2026-04-12T20:00:01.999008","MEAN_MOTION":15.61143243,"ECCENTRICITY":0.0001036,"INCLINATION":53.1594,"RA_OF_ASC_NODE":111.0328,"ARG_OF_PERICENTER":78.5666,"MEAN_ANOMALY":159.9794,"EPHEMERIS_TYPE":0,"CLASSIFICATION_TYPE":"U","NORAD_CAT_ID":68169,"ELEMENT_SET_NO":999,"REV_AT_EPOCH":593,"BSTAR":-0.019272,"MEAN_MOTION_DOT":-0.01482048,"MEAN_MOTION_DDOT":0},{"OBJECT_NAME":"STARLINK-37003","OBJECT_ID":"2026-050D","EPOCH":"2026-04-12T20:00:01.999008","MEAN_MOTION":15.61646536,"ECCENTRICITY":0.0001235,"INCLINATION":53.159,"RA_OF_ASC_NODE":111.0077,"ARG_OF_PERICENTER":78.3765,"MEAN_ANOMALY":172.4998,"EPHEMERIS_TYPE":0,"CLASSIFICATION_TYPE":"U","NORAD_CAT_ID":68170,"ELEMENT_SET_NO":999,"REV_AT_EPOCH":593,"BSTAR":-0.019538,"MEAN_MOTION_DOT":-0.01526915,"MEAN_MOTION_DDOT":0},{"OBJECT_NAME":"STARLINK-37034","OBJECT_ID":"2026-050E","EPOCH":"2026-04-12T20:00:01.999008","MEAN_MOTION":15.59894187,"ECCENTRICITY":9.79e-5,"INCLINATION":53.1592,"RA_OF_ASC_NODE":111.0591,"ARG_OF_PERICENTER":77.7538,"MEAN_ANOMALY":147.6723,"EPHEMERIS_TYPE":0,"CLASSIFICATION_TYPE":"U","NORAD_CAT_ID":68171,"ELEMENT_SET_NO":999,"REV_AT_EPOCH":593,"BSTAR":-0.020318,"MEAN_MOTION_DOT":-0.01487922,"MEAN_MOTION_DDOT":0},{"OBJECT_NAME":"STARLINK-37031","OBJECT_ID":"2026-050F","EPOCH":"2026-04-12T20:00:01.999008","MEAN_MOTION":15.62813973,"ECCENTRICITY":0.0001126,"INCLINATION":53.1598,"RA_OF_ASC_NODE":110.9515,"ARG_OF_PERICENTER":81.4794,"MEAN_ANOMALY":196.7889,"EPHEMERIS_TYPE":0,"CLASSIFICATION_TYPE":"U","NORAD_CAT_ID":68172,"ELEMENT_SET_NO":999,"REV_AT_EPOCH":593,"BSTAR":-0.017865,"MEAN_MOTION_DOT":-0.01468466,"MEAN_MOTION_DDOT":0},{"OBJECT_NAME":"STARLINK-37076","OBJECT_ID":"2026-050G","EPOCH":"2026-04-12T20:00:01.999008","MEAN_MOTION":15.63865447,"ECCENTRICITY":0.0001349,"INCLINATION":53.1593,"RA_OF_ASC_NODE":110.9105,"ARG_OF_PERICENTER":80.9491,"MEAN_ANOMALY":216.96,"EPHEMERIS_TYPE":0,"CLASSIFICATION_TYPE":"U","NORAD_CAT_ID":68173,"ELEMENT_SET_NO":999,"REV_AT_EPOCH":593,"BSTAR":-0.017834,"MEAN_MOTION_DOT":-0.01521999,"MEAN_MOTION_DDOT":0},{"OBJECT_NAME":"STARLINK-37078","OBJECT_ID":"2026-050H","EPOCH":"2026-04-12T20:00:01.999008","MEAN_MOTION":15.6393391,"ECCENTRICITY":0.0001356,"INCLINATION":53.1597,"RA_OF_ASC_NODE":110.8998,"ARG_OF_PERICENTER":82.299,"MEAN_ANOMALY":220.8951,"EPHEMERIS_TYPE":0,"CLASSIFICATION_TYPE":"U","NORAD_CAT_ID":68174,"ELEMENT_SET_NO":999,"REV_AT_EPOCH":593,"BSTAR":-0.017726,"MEAN_MOTION_DOT":-0.01517477,"MEAN_MOTION_DDOT":0},{"OBJECT_NAME":"STARLINK-36886","OBJECT_ID":"2026-050J","EPOCH":"2026-04-12T20:00:01.999008","MEAN_MOTION":15.63901643,"ECCENTRICITY":0.0001312,"INCLINATION":53.1597,"RA_OF_ASC_NODE":110.8917,"ARG_OF_PERICENTER":83.8167,"MEAN_ANOMALY":223.2197,"EPHEMERIS_TYPE":0,"CLASSIFICATION_TYPE":"U","NORAD_CAT_ID":68175,"ELEMENT_SET_NO":999,"REV_AT_EPOCH":593,"BSTAR":-0.017661,"MEAN_MOTION_DOT":-0.01510724,"MEAN_MOTION_DDOT":0},{"OBJECT_NAME":"STARLINK-36905","OBJECT_ID":"2026-050K","EPOCH":"2026-04-12T20:00:01.999008","MEAN_MOTION":15.66185843,"ECCENTRICITY":0.0001426,"INCLINATION":53.1593,"RA_OF_ASC_NODE":110.8215,"ARG_OF_PERICENTER":93.6646,"MEAN_ANOMALY":248.2438,"EPHEMERIS_TYPE":0,"CLASSIFICATION_TYPE":"U","NORAD_CAT_ID":68176,"ELEMENT_SET_NO":999,"REV_AT_EPOCH":593,"BSTAR":-0.016345,"MEAN_MOTION_DOT":-0.01530406,"MEAN_MOTION_DDOT":0},{"OBJECT_NAME":"STARLINK-36668","OBJECT_ID":"2026-050L","EPOCH":"2026-04-12T20:00:01.999008","MEAN_MOTION":15.49293568,"ECCENTRICITY":0.0001133,"INCLINATION":53.1596,"RA_OF_ASC_NODE":111.6621,"ARG_OF_PERICENTER":94.1261,"MEAN_ANOMALY":193.3624,"EPHEMERIS_TYPE":0,"CLASSIFICATION_TYPE":"U","NORAD_CAT_ID":68177,"ELEMENT_SET_NO":999,"REV_AT_EPOCH":593,"BSTAR":0.0011377,"MEAN_MOTION_DOT":0.00063306,"MEAN_MOTION_DDOT":0},{"OBJECT_NAME":"STARLINK-36677","OBJECT_ID":"2026-050M","EPOCH":"2026-04-12T20:00:01.999008","MEAN_MOTION":15.67221799,"ECCENTRICITY":0.0001218,"INCLINATION":53.16,"RA_OF_ASC_NODE":110.7795,"ARG_OF_PERICENTER":113.8802,"MEAN_ANOMALY":248.5982,"EPHEMERIS_TYPE":0,"CLASSIFICATION_TYPE":"U","NORAD_CAT_ID":68178,"ELEMENT_SET_NO":999,"REV_AT_EPOCH":593,"BSTAR":-0.016612,"MEAN_MOTION_DOT":-0.01612051,"MEAN_MOTION_DDOT":0},{"OBJECT_NAME":"STARLINK-37052","OBJECT_ID":"2026-050N","EPOCH":"2026-04-12T20:00:01.999008","MEAN_MOTION":15.5972857,"ECCENTRICITY":0.0001059,"INCLINATION":53.16,"RA_OF_ASC_NODE":110.995,"ARG_OF_PERICENTER":76.9681,"MEAN_ANOMALY":179.6657,"EPHEMERIS_TYPE":0,"CLASSIFICATION_TYPE":"U","NORAD_CAT_ID":68179,"ELEMENT_SET_NO":999,"REV_AT_EPOCH":593,"BSTAR":-0.020429,"MEAN_MOTION_DOT":-0.01486742,"MEAN_MOTION_DDOT":0},{"OBJECT_NAME":"STARLINK-37035","OBJECT_ID":"2026-050P","EPOCH":"2026-04-12T20:00:01.999008","MEAN_MOTION":15.60040599,"ECCENTRICITY":0.0001245,"INCLINATION":53.1589,"RA_OF_ASC_NODE":110.9739,"ARG_OF_PERICENTER":80.6955,"MEAN_ANOMALY":185.5947,"EPHEMERIS_TYPE":0,"CLASSIFICATION_TYPE":"U","NORAD_CAT_ID":68180,"ELEMENT_SET_NO":999,"REV_AT_EPOCH":593,"BSTAR":-0.020626,"MEAN_MOTION_DOT":-0.01515805,"MEAN_MOTION_DDOT":0},{"OBJECT_NAME":"STARLINK-37032","OBJECT_ID":"2026-050Q","EPOCH":"2026-04-12T20:00:01.999008","MEAN_MOTION":15.60468659,"ECCENTRICITY":0.0001162,"INCLINATION":53.1596,"RA_OF_ASC_NODE":110.9503,"ARG_OF_PERICENTER":77.6585,"MEAN_ANOMALY":200.5853,"EPHEMERIS_TYPE":0,"CLASSIFICATION_TYPE":"U","NORAD_CAT_ID":68181,"ELEMENT_SET_NO":999,"REV_AT_EPOCH":593,"BSTAR":-0.019895,"MEAN_MOTION_DOT":-0.01489554,"MEAN_MOTION_DDOT":0},{"OBJECT_NAME":"STARLINK-37082","OBJECT_ID":"2026-050R","EPOCH":"2026-04-12T20:00:01.999008","MEAN_MOTION":15.56036444,"ECCENTRICITY":9.43e-5,"INCLINATION":53.1594,"RA_OF_ASC_NODE":111.1046,"ARG_OF_PERICENTER":88.6864,"MEAN_ANOMALY":113.6734,"EPHEMERIS_TYPE":0,"CLASSIFICATION_TYPE":"U","NORAD_CAT_ID":68182,"ELEMENT_SET_NO":999,"REV_AT_EPOCH":593,"BSTAR":-0.012689,"MEAN_MOTION_DOT":-0.00825016,"MEAN_MOTION_DDOT":0},{"OBJECT_NAME":"STARLINK-37102","OBJECT_ID":"2026-050S","EPOCH":"2026-04-12T20:00:01.999008","MEAN_MOTION":15.58542853,"ECCENTRICITY":0.0001489,"INCLINATION":53.1596,"RA_OF_ASC_NODE":111.009,"ARG_OF_PERICENTER":79.3619,"MEAN_ANOMALY":169.511,"EPHEMERIS_TYPE":0,"CLASSIFICATION_TYPE":"U","NORAD_CAT_ID":68183,"ELEMENT_SET_NO":999,"REV_AT_EPOCH":593,"BSTAR":-0.027503,"MEAN_MOTION_DOT":-0.0189393,"MEAN_MOTION_DDOT":0}]
