STARLINK-36969          
1 68167U 26050A   26102.83335647 -.01916808  00000+0 -26842-1 0  9998
2 68167  53.1591 111.1137 0001346  72.9740 125.9152 15.59533725  5939
STARLINK-36984          
1 68168U 26050B   26102.83335647  .00068229  00000+0  12249-2 0  9998
2 68168  53.1598 111.6592 0001081  93.8265 195.5506 15.49291790  5935
STARLINK-37077          
1 68169U 26050C   26102.83335647 -.01482048  00000+0 -19272-1 0  9993
2 68169  53.1594 111.0328 0001036  78.5666 159.9794 15.61143243  5934
STARLINK-37003          
1 68170U 26050D   26102.83335647 -.01526915  00000+0 -19538-1 0  9992
2 68170  53.1590 111.0077 0001235  78.3765 172.4998 15.61646536  5931
STARLINK-37034          
1 68171U 26050E   26102.83335647 -.01487922  00000+0 -20318-1 0  9995
2 68171  53.1592 111.0591 0000979  77.7538 147.6723 15.59894187  5934
STARLINK-37031          
1 68172U 26050F   26102.83335647 -.01468466  00000+0 -17865-1 0  9991
2 68172  53.1598 110.9515 0001126  81.4794 196.7889 15.62813973  5932
STARLINK-37076          
1 68173U 26050G   26102.83335647 -.01521999  00000+0 -17834-1 0  9999
2 68173  53.1593 110.9105 0001349  80.9491 216.9600 15.63865447  5938
STARLINK-37078          
1 68174U 26050H   26102.83335647 -.01517477  00000+0 -17726-1 0  9996
2 68174  53.1597 110.8998 0001356  82.2990 220.8951 15.63933910  5933
STARLINK-36886          
1 68175U 26050J   26102.83335647 -.01510724  00000+0 -17661-1 0  9993
2 68175  53.1597 110.8917 0001312  83.8167 223.2197 15.63901643  5937
STARLINK-36905          
1 68176U 26050K   26102.83335647 -.01530406  00000+0 -16345-1 0  9991
2 68176  53.1593 110.8215 0001426  93.6646 248.2438 15.66185843  5936
STARLINK-36668          
1 68177U 26050L   26102.83335647  .00063306  00000+0  11377-2 0  9990
2 68177  53.1596 111.6621 0001133  94.1261 193.3624 15.49293568  5936
STARLINK-36677          
1 68178U 26050M   26102.83335647 -.01612051  00000+0 -16612-1 0  9997
2 68178  53.1600 110.7795 0001218 113.8802 248.5982 15.67221799  5936
STARLINK-37052          
1 68179U 26050N   26102.83335647 -.01486742  00000+0 -20429-1 0  9995
2 68179  53.1600 110.9950 0001059  76.9681 179.6657 15.59728570  5932
STARLINK-37035          
1 68180U 26050P   26102.83335647 -.01515805  00000+0 -20626-1 0  9999
2 68180  53.1589 110.9739 0001245  80.6955 185.5947 15.60040599  5936
STARLINK-37032          
1 68181U 26050Q   26102.83335647 -.01489554  00000+0 -19895-1 0  9997
2 68181  53.1596 110.9503 0001162  77.6585 200.5853 15.60468659  5932
STARLINK-37082          
1 68182U 26050R   26102.83335647 -.00825016  00000+0 -12689-1 0  9998
2 68182  53.1594 111.1046 0000943  88.6864 113.6734 15.56036444  5934
STARLINK-37102          
1 68183U 26050S   26102.83335647 -.01893930  00000+0 -27503-1 0  9991
2 68183  53.1596 111.0090 0001489  79.3619 169.5110 15.58542853  5932
